{
  "type": "FeatureCollection",
  "features": [
    {
      "type": "Feature",
      "properties": {
        "norad_id": 26766,
        "name": "INTELSAT 10 (IS-10)",
        "group": "intelsat",
        "lat": 8.138745163120383,
        "lon": 131.62403113550687,
        "alt_km": 36151.42491612648,
        "timestamp": "2025-12-06T16:45:42.393878+00:00",
        "meta_object_name": "INTELSAT 10 (IS-10)",
        "meta_object_id": "2001-019A",
        "meta_epoch": "2025-12-05T12:47:33.691776",
        "meta_mean_motion": 0.99078635,
        "meta_eccentricity": 0.00078343,
        "meta_inclination": 8.6118,
        "meta_ra_of_asc_node": 61.2275,
        "meta_arg_of_pericenter": 219.6027,
        "meta_mean_anomaly": 155.367,
        "meta_ephemeris_type": 0,
        "meta_classification_type": "U",
        "meta_norad_cat_id": 26766,
        "meta_element_set_no": 999,
        "meta_rev_at_epoch": 4366,
        "meta_bstar": 0,
        "meta_mean_motion_dot": -2.14e-06,
        "meta_mean_motion_ddot": 0,
        "tle_line1": "1 26766U 01019A   25339.53302884 -.00000214  00000+0  00000+0 0  9999",
        "tle_line2": "2 26766   8.6118  61.2275 0007834 219.6027 155.3670  0.99078635 43668"
      },
      "geometry": {
        "type": "Point",
        "coordinates": [
          131.62403113550687,
          8.138745163120383
        ]
      }
    },
    {
      "type": "Feature",
      "properties": {
        "norad_id": 26900,
        "name": "INTELSAT 902 (IS-902)",
        "group": "intelsat",
        "lat": -2.2111766477921835,
        "lon": -83.07270363222516,
        "alt_km": 35771.13594390279,
        "timestamp": "2025-12-06T16:45:42.393902+00:00",
        "meta_object_name": "INTELSAT 902 (IS-902)",
        "meta_object_id": "2001-039A",
        "meta_epoch": "2025-12-01T16:59:59.311968",
        "meta_mean_motion": 1.00270327,
        "meta_eccentricity": 0.00043097,
        "meta_inclination": 5.6187,
        "meta_ra_of_asc_node": 74.2002,
        "meta_arg_of_pericenter": 175.119,
        "meta_mean_anomaly": 26.3816,
        "meta_ephemeris_type": 0,
        "meta_classification_type": "U",
        "meta_norad_cat_id": 26900,
        "meta_element_set_no": 999,
        "meta_rev_at_epoch": 8871,
        "meta_bstar": 0,
        "meta_mean_motion_dot": -2.63e-06,
        "meta_mean_motion_ddot": 0,
        "tle_line1": "1 26900U 01039A   25335.70832537 -.00000263  00000+0  00000+0 0  9993",
        "tle_line2": "2 26900   5.6187  74.2002 0004309 175.1190  26.3816  1.00270327 88713"
      },
      "geometry": {
        "type": "Point",
        "coordinates": [
          -83.07270363222516,
          -2.2111766477921835
        ]
      }
    },
    {
      "type": "Feature",
      "properties": {
        "norad_id": 27380,
        "name": "INTELSAT 904 (IS-904)",
        "group": "intelsat",
        "lat": -4.500093422270257,
        "lon": -64.53693403760715,
        "alt_km": 35780.46489886617,
        "timestamp": "2025-12-06T16:45:42.393918+00:00",
        "meta_object_name": "INTELSAT 904 (IS-904)",
        "meta_object_id": "2002-007A",
        "meta_epoch": "2025-12-06T03:14:31.415712",
        "meta_mean_motion": 1.00268775,
        "meta_eccentricity": 0.00017374,
        "meta_inclination": 6.4378,
        "meta_ra_of_asc_node": 71.5073,
        "meta_arg_of_pericenter": 209.4641,
        "meta_mean_anomaly": 171.3234,
        "meta_ephemeris_type": 0,
        "meta_classification_type": "U",
        "meta_norad_cat_id": 27380,
        "meta_element_set_no": 999,
        "meta_rev_at_epoch": 4983,
        "meta_bstar": 0,
        "meta_mean_motion_dot": -2.21e-06,
        "meta_mean_motion_ddot": 0,
        "tle_line1": "1 27380U 02007A   25340.13508583 -.00000221  00000+0  00000+0 0  9990",
        "tle_line2": "2 27380   6.4378  71.5073 0001737 209.4641 171.3234  1.00268775 49838"
      },
      "geometry": {
        "type": "Point",
        "coordinates": [
          -64.53693403760715,
          -4.500093422270257
        ]
      }
    },
    {
      "type": "Feature",
      "properties": {
        "norad_id": 27426,
        "name": "DIRECTV 5 (TEMPO 1)",
        "group": "intelsat",
        "lat": 2.8395155609439815,
        "lon": -142.91835701735235,
        "alt_km": 35776.39192603629,
        "timestamp": "2025-12-06T16:45:42.393931+00:00",
        "meta_object_name": "DIRECTV 5 (TEMPO 1)",
        "meta_object_id": "2002-023A",
        "meta_epoch": "2025-12-06T07:44:29.684256",
        "meta_mean_motion": 1.00271488,
        "meta_eccentricity": 0.00039116,
        "meta_inclination": 4.3851,
        "meta_ra_of_asc_node": 77.7272,
        "meta_arg_of_pericenter": 194.8447,
        "meta_mean_anomaly": 168.7939,
        "meta_ephemeris_type": 0,
        "meta_classification_type": "U",
        "meta_norad_cat_id": 27426,
        "meta_element_set_no": 999,
        "meta_rev_at_epoch": 8619,
        "meta_bstar": 0,
        "meta_mean_motion_dot": -5.2e-07,
        "meta_mean_motion_ddot": 0,
        "tle_line1": "1 27426U 02023A   25340.32256579 -.00000052  00000+0  00000+0 0  9997",
        "tle_line2": "2 27426   4.3851  77.7272 0003911 194.8447 168.7939  1.00271488 86195"
      },
      "geometry": {
        "type": "Point",
        "coordinates": [
          -142.91835701735235,
          2.8395155609439815
        ]
      }
    },
    {
      "type": "Feature",
      "properties": {
        "norad_id": 27438,
        "name": "INTELSAT 905 (IS-905)",
        "group": "intelsat",
        "lat": 5.531299701256271,
        "lon": -169.88715360462194,
        "alt_km": 35780.359712070116,
        "timestamp": "2025-12-06T16:45:42.393944+00:00",
        "meta_object_name": "INTELSAT 905 (IS-905)",
        "meta_object_id": "2002-027A",
        "meta_epoch": "2025-12-03T09:40:44.149728",
        "meta_mean_motion": 1.00273288,
        "meta_eccentricity": 0.00031296,
        "meta_inclination": 6.2606,
        "meta_ra_of_asc_node": 72.1621,
        "meta_arg_of_pericenter": 189.1417,
        "meta_mean_anomaly": 179.1858,
        "meta_ephemeris_type": 0,
        "meta_classification_type": "U",
        "meta_norad_cat_id": 27438,
        "meta_element_set_no": 999,
        "meta_rev_at_epoch": 4940,
        "meta_bstar": 0,
        "meta_mean_motion_dot": 1.09e-06,
        "meta_mean_motion_ddot": 0,
        "tle_line1": "1 27438U 02027A   25337.40328877  .00000109  00000+0  00000+0 0  9992",
        "tle_line2": "2 27438   6.2606  72.1621 0003129 189.1417 179.1858  1.00273288 49408"
      },
      "geometry": {
        "type": "Point",
        "coordinates": [
          -169.88715360462194,
          5.531299701256271
        ]
      }
    },
    {
      "type": "Feature",
      "properties": {
        "norad_id": 27445,
        "name": "GALAXY 3C (G-3C)",
        "group": "intelsat",
        "lat": 1.5130860026406134,
        "lon": -127.6581008994845,
        "alt_km": 35782.89751765205,
        "timestamp": "2025-12-06T16:45:42.393956+00:00",
        "meta_object_name": "GALAXY 3C (G-3C)",
        "meta_object_id": "2002-030A",
        "meta_epoch": "2025-12-06T06:22:01.519104",
        "meta_mean_motion": 1.00270551,
        "meta_eccentricity": 0.0001218,
        "meta_inclination": 3.2475,
        "meta_ra_of_asc_node": 80.5704,
        "meta_arg_of_pericenter": 102.547,
        "meta_mean_anomaly": 252.8356,
        "meta_ephemeris_type": 0,
        "meta_classification_type": "U",
        "meta_norad_cat_id": 27445,
        "meta_element_set_no": 999,
        "meta_rev_at_epoch": 4455,
        "meta_bstar": 0,
        "meta_mean_motion_dot": -1.46e-06,
        "meta_mean_motion_ddot": 0,
        "tle_line1": "1 27445U 02030A   25340.26529536 -.00000146  00000+0  00000+0 0  9999",
        "tle_line2": "2 27445   3.2475  80.5704 0001218 102.5470 252.8356  1.00270551 44550"
      },
      "geometry": {
        "type": "Point",
        "coordinates": [
          -127.6581008994845,
          1.5130860026406134
        ]
      }
    },
    {
      "type": "Feature",
      "properties": {
        "norad_id": 27513,
        "name": "INTELSAT 906 (IS-906)",
        "group": "intelsat",
        "lat": -3.667279043528787,
        "lon": 31.473345366974502,
        "alt_km": 35802.88300823197,
        "timestamp": "2025-12-06T16:45:42.393968+00:00",
        "meta_object_name": "INTELSAT 906 (IS-906)",
        "meta_object_id": "2002-041A",
        "meta_epoch": "2025-12-06T05:24:37.018944",
        "meta_mean_motion": 1.00270357,
        "meta_eccentricity": 0.00060447,
        "meta_inclination": 5.3123,
        "meta_ra_of_asc_node": 75.3091,
        "meta_arg_of_pericenter": 187.5857,
        "meta_mean_anomaly": 317.6689,
        "meta_ephemeris_type": 0,
        "meta_classification_type": "U",
        "meta_norad_cat_id": 27513,
        "meta_element_set_no": 999,
        "meta_rev_at_epoch": 8509,
        "meta_bstar": 0,
        "meta_mean_motion_dot": 1.8e-07,
        "meta_mean_motion_ddot": 0,
        "tle_line1": "1 27513U 02041A   25340.22542846  .00000018  00000+0  00000+0 0  9999",
        "tle_line2": "2 27513   5.3123  75.3091 0006044 187.5857 317.6689  1.00270357 85091"
      },
      "geometry": {
        "type": "Point",
        "coordinates": [
          31.473345366974502,
          -3.667279043528787
        ]
      }
    }
  ]
}